[Satellite]
VERSION=1.1
NAME=ORBCOMM FM08 [+]
NICKNAME=ORBCOMM FM08 [+]
TLE1=1 25112U 97084A   15054.99430283  .00001003  00000-0  37817-3 0  9995
TLE2=2 25112  45.0150 270.2193 0008955  36.4532 323.6925 14.37594905898790
